[{"OBJECT_NAME":"STARLINK-11172 [DTC]","OBJECT_ID":"2024-124L","EPOCH":"2026-03-09T12:05:05.242560","MEAN_MOTION":15.69684856,"ECCENTRICITY":0.00012763,"INCLINATION":53.1577,"RA_OF_ASC_NODE":162.2654,"ARG_OF_PERICENTER":118.8783,"MEAN_ANOMALY":241.2363,"EPHEMERIS_TYPE":0,"CLASSIFICATION_TYPE":"U","NORAD_CAT_ID":60193,"ELEMENT_SET_NO":999,"REV_AT_EPOCH":9650,"BSTAR":-7.6526493e-5,"MEAN_MOTION_DOT":-9.839e-5,"MEAN_MOTION_DDOT":0},{"OBJECT_NAME":"CZ-3B R\/B","OBJECT_ID":"2018-029C","EPOCH":"2026-03-09T13:49:46.498368","MEAN_MOTION":4.72099805,"ECCENTRICITY":0.5508411,"INCLINATION":54.8982,"RA_OF_ASC_NODE":147.7898,"ARG_OF_PERICENTER":49.3513,"MEAN_ANOMALY":346.9736,"EPHEMERIS_TYPE":0,"CLASSIFICATION_TYPE":"U","NORAD_CAT_ID":43247,"ELEMENT_SET_NO":999,"REV_AT_EPOCH":13578,"BSTAR":0.00083439,"MEAN_MOTION_DOT":1.645e-5,"MEAN_MOTION_DDOT":0}]
